{
  "type": "FeatureCollection",
  "features": [
    {
      "type": "Feature",
      "properties": {
        "norad_id": 35915,
        "name": "IRIDIUM 33 DEB",
        "group": "iridium-33-debris",
        "lat": 65.83675034691868,
        "lon": -7.530260795904373,
        "alt_km": 625.7927454382461,
        "timestamp": "2025-12-09T20:37:09.674564+00:00",
        "meta_object_name": "IRIDIUM 33 DEB",
        "meta_object_id": "1997-051TY",
        "meta_epoch": "2025-12-07T18:02:16.498176",
        "meta_mean_motion": 14.80542095,
        "meta_eccentricity": 0.00101746,
        "meta_inclination": 86.3429,
        "meta_ra_of_asc_node": 345.2367,
        "meta_arg_of_pericenter": 205.9072,
        "meta_mean_anomaly": 154.1641,
        "meta_ephemeris_type": 0,
        "meta_classification_type": "U",
        "meta_norad_cat_id": 35915,
        "meta_element_set_no": 999,
        "meta_rev_at_epoch": 8012,
        "meta_bstar": 0.0030076362,
        "meta_mean_motion_dot": 0.00023136,
        "meta_mean_motion_ddot": 0,
        "tle_line1": "1 35915U 97051TY  25341.75157984  .00023136  00000+0  30076-2 0  9998",
        "tle_line2": "2 35915  86.3429 345.2367 0010174 205.9072 154.1641 14.80542095 80126"
      },
      "geometry": {
        "type": "Point",
        "coordinates": [
          -7.530260795904373,
          65.83675034691868
        ]
      }
    },
    {
      "type": "Feature",
      "properties": {
        "norad_id": 35918,
        "name": "IRIDIUM 33 DEB",
        "group": "iridium-33-debris",
        "lat": 14.00076129715945,
        "lon": -103.84749070017403,
        "alt_km": 703.892835207681,
        "timestamp": "2025-12-09T20:37:09.674574+00:00",
        "meta_object_name": "IRIDIUM 33 DEB",
        "meta_object_id": "1997-051UB",
        "meta_epoch": "2025-12-09T13:18:26.590752",
        "meta_mean_motion": 14.51197516,
        "meta_eccentricity": 0.00273512,
        "meta_inclination": 86.4004,
        "meta_ra_of_asc_node": 77.1826,
        "meta_arg_of_pericenter": 180.0208,
        "meta_mean_anomaly": 195.2602,
        "meta_ephemeris_type": 0,
        "meta_classification_type": "U",
        "meta_norad_cat_id": 35918,
        "meta_element_set_no": 999,
        "meta_rev_at_epoch": 85161,
        "meta_bstar": 0.0018636004,
        "meta_mean_motion_dot": 7.457e-05,
        "meta_mean_motion_ddot": 0,
        "tle_line1": "1 35918U 97051UB  25343.55447443  .00007457  00000+0  18636-2 0  9999",
        "tle_line2": "2 35918  86.4004  77.1826 0027351 180.0208 195.2602 14.51197516851614"
      },
      "geometry": {
        "type": "Point",
        "coordinates": [
          -103.84749070017403,
          14.00076129715945
        ]
      }
    },
    {
      "type": "Feature",
      "properties": {
        "norad_id": 35929,
        "name": "IRIDIUM 33 DEB",
        "group": "iridium-33-debris",
        "lat": 73.28806317196677,
        "lon": 121.66058327585243,
        "alt_km": 548.8224170111871,
        "timestamp": "2025-12-09T20:37:09.674584+00:00",
        "meta_object_name": "IRIDIUM 33 DEB",
        "meta_object_id": "1997-051UN",
        "meta_epoch": "2025-12-02T05:49:26.403744",
        "meta_mean_motion": 15.01304383,
        "meta_eccentricity": 0.00192929,
        "meta_inclination": 86.3326,
        "meta_ra_of_asc_node": 317.6017,
        "meta_arg_of_pericenter": 66.6937,
        "meta_mean_anomaly": 293.6323,
        "meta_ephemeris_type": 0,
        "meta_classification_type": "U",
        "meta_norad_cat_id": 35929,
        "meta_element_set_no": 999,
        "meta_rev_at_epoch": 87622,
        "meta_bstar": 0.0031995692,
        "meta_mean_motion_dot": 0.00041528,
        "meta_mean_motion_ddot": 0,
        "tle_line1": "1 35929U 97051UN  25336.24266671  .00041528  00000+0  31996-2 0  9992",
        "tle_line2": "2 35929  86.3326 317.6017 0019292  66.6937 293.6323 15.01304383876224"
      },
      "geometry": {
        "type": "Point",
        "coordinates": [
          121.66058327585243,
          73.28806317196677
        ]
      }
    },
    {
      "type": "Feature",
      "properties": {
        "norad_id": 36011,
        "name": "IRIDIUM 33 DEB",
        "group": "iridium-33-debris",
        "lat": -41.16990504113016,
        "lon": 33.455205760914886,
        "alt_km": 761.31167936766,
        "timestamp": "2025-12-09T20:37:09.674594+00:00",
        "meta_object_name": "IRIDIUM 33 DEB",
        "meta_object_id": "1997-051US",
        "meta_epoch": "2025-12-08T10:05:26.079072",
        "meta_mean_motion": 14.41310203,
        "meta_eccentricity": 0.00172479,
        "meta_inclination": 86.3414,
        "meta_ra_of_asc_node": 37.2804,
        "meta_arg_of_pericenter": 231.0749,
        "meta_mean_anomaly": 187.2759,
        "meta_ephemeris_type": 0,
        "meta_classification_type": "U",
        "meta_norad_cat_id": 36011,
        "meta_element_set_no": 999,
        "meta_rev_at_epoch": 64478,
        "meta_bstar": 0.00083412768,
        "meta_mean_motion_dot": 2.72e-05,
        "meta_mean_motion_ddot": 0,
        "tle_line1": "1 36011U 97051US  25342.42044073  .00002720  00000+0  83413-3 0  9995",
        "tle_line2": "2 36011  86.3414  37.2804 0017247 231.0749 187.2759 14.41310203644787"
      },
      "geometry": {
        "type": "Point",
        "coordinates": [
          33.455205760914886,
          -41.16990504113016
        ]
      }
    },
    {
      "type": "Feature",
      "properties": {
        "norad_id": 36012,
        "name": "IRIDIUM 33 DEB",
        "group": "iridium-33-debris",
        "lat": 65.29572261784932,
        "lon": 120.92463417110172,
        "alt_km": 964.55696522784,
        "timestamp": "2025-12-09T20:37:09.674605+00:00",
        "meta_object_name": "IRIDIUM 33 DEB",
        "meta_object_id": "1997-051UT",
        "meta_epoch": "2025-12-09T14:59:18.724992",
        "meta_mean_motion": 14.18848487,
        "meta_eccentricity": 0.02124515,
        "meta_inclination": 86.4428,
        "meta_ra_of_asc_node": 308.7902,
        "meta_arg_of_pericenter": 273.2722,
        "meta_mean_anomaly": 84.4182,
        "meta_ephemeris_type": 0,
        "meta_classification_type": "U",
        "meta_norad_cat_id": 36012,
        "meta_element_set_no": 999,
        "meta_rev_at_epoch": 65440,
        "meta_bstar": 0.0096093467,
        "meta_mean_motion_dot": 0.00025103,
        "meta_mean_motion_ddot": 0,
        "tle_line1": "1 36012U 97051UT  25343.62452228  .00025103  00000+0  96093-2 0  9991",
        "tle_line2": "2 36012  86.4428 308.7902 0212451 273.2722  84.4182 14.18848487654404"
      },
      "geometry": {
        "type": "Point",
        "coordinates": [
          120.92463417110172,
          65.29572261784932
        ]
      }
    },
    {
      "type": "Feature",
      "properties": {
        "norad_id": 36028,
        "name": "IRIDIUM 33 DEB",
        "group": "iridium-33-debris",
        "lat": 51.24342138431557,
        "lon": 123.45611011372131,
        "alt_km": 571.5133871579792,
        "timestamp": "2025-12-09T20:37:09.674615+00:00",
        "meta_object_name": "IRIDIUM 33 DEB",
        "meta_object_id": "1997-051VK",
        "meta_epoch": "2025-12-09T15:13:45.378336",
        "meta_mean_motion": 14.9504485,
        "meta_eccentricity": 0.00219518,
        "meta_inclination": 86.3218,
        "meta_ra_of_asc_node": 308.1579,
        "meta_arg_of_pericenter": 62.5746,
        "meta_mean_anomaly": 297.7712,
        "meta_ephemeris_type": 0,
        "meta_classification_type": "U",
        "meta_norad_cat_id": 36028,
        "meta_element_set_no": 999,
        "meta_rev_at_epoch": 87078,
        "meta_bstar": 0.0031387513,
        "meta_mean_motion_dot": 0.00034662,
        "meta_mean_motion_ddot": 0,
        "tle_line1": "1 36028U 97051VK  25343.63455299  .00034662  00000+0  31388-2 0  9996",
        "tle_line2": "2 36028  86.3218 308.1579 0021951  62.5746 297.7712 14.95044850870785"
      },
      "geometry": {
        "type": "Point",
        "coordinates": [
          123.45611011372131,
          51.24342138431557
        ]
      }
    },
    {
      "type": "Feature",
      "properties": {
        "norad_id": 36080,
        "name": "IRIDIUM 33 DEB",
        "group": "iridium-33-debris",
        "lat": 50.232576386390825,
        "lon": -175.19397652674715,
        "alt_km": 722.04573076612,
        "timestamp": "2025-12-09T20:37:09.674625+00:00",
        "meta_object_name": "IRIDIUM 33 DEB",
        "meta_object_id": "1997-051VM",
        "meta_epoch": "2025-12-09T08:24:04.128192",
        "meta_mean_motion": 14.46584309,
        "meta_eccentricity": 0.0017863,
        "meta_inclination": 86.3197,
        "meta_ra_of_asc_node": 9.4635,
        "meta_arg_of_pericenter": 167.4902,
        "meta_mean_anomaly": 192.6748,
        "meta_ephemeris_type": 0,
        "meta_classification_type": "U",
        "meta_norad_cat_id": 36080,
        "meta_element_set_no": 999,
        "meta_rev_at_epoch": 47365,
        "meta_bstar": 0.0010095558,
        "meta_mean_motion_dot": 3.665e-05,
        "meta_mean_motion_ddot": 0,
        "tle_line1": "1 36080U 97051VM  25343.35004778  .00003665  00000+0  10096-2 0  9997",
        "tle_line2": "2 36080  86.3197   9.4635 0017863 167.4902 192.6748 14.46584309473650"
      },
      "geometry": {
        "type": "Point",
        "coordinates": [
          -175.19397652674715,
          50.232576386390825
        ]
      }
    }
  ]
}